MEAN_MOTION;ECCENTRICITY;INCLINATION;RA_OF_ASC_NODE;ARG_OF_PERICENTER;MEAN_ANOMALY;BSTAR;MEAN_MOTION_DOT;MEAN_MOTION_DDOT;TYPE
14.89084497;0.002325;97.7382;41.11;180.9872;179.1303;3.2115E-5;2.49E-6;0;Amateur
14.89084928;0.002335;97.7383;42.0952;177.6322;182.501;2.8561E-5;2.15E-6;0;Amateur
14.89085606;0.0023447;97.7385;43.0805;174.2666;185.8824;2.6517E-5;1.96E-6;0;Amateur
14.89086047;0.0023505;97.7386;43.6717;172.2568;187.9017;2.5888E-5;1.9E-6;0;Amateur
14.89086346;0.0023537;97.7387;44.0659;170.9296;189.2351;2.5986E-5;1.91E-6;0;Amateur
14.89086664;0.0023581;97.7388;44.5257;169.3564;190.8158;2.5648E-5;1.88E-6;0;Amateur
14.89087579;0.0023696;97.7391;45.9709;164.5207;195.674;2.692E-5;2.0E-6;0;Amateur
14.89087598;0.00237;97.7391;46.0365;164.2867;195.9091;2.666E-5;1.97E-6;0;Amateur
14.89088161;0.0023767;97.7393;46.9562;161.2136;198.9963;2.9661E-5;2.26E-6;0;Amateur
14.89088202;0.0023774;97.7393;47.0218;160.9955;199.2155;2.987E-5;2.28E-6;0;Amateur
14.89088697;0.0023852;97.7395;47.9416;158.025;202.1995;3.3415E-5;2.61E-6;0;Amateur
14.89088768;0.0023858;97.7395;48.0073;157.8091;202.4165;3.43E-5;2.7E-6;0;Amateur
14.89088893;0.0023931;97.7396;48.9271;154.8047;205.4344;2.9948E-5;2.29E-6;0;Amateur
14.89089267;0.0024009;97.7398;49.9126;151.5686;208.6847;2.7986E-5;2.1E-6;0;Amateur
14.89089932;0.0024091;97.7399;50.8981;148.319;211.9483;2.8538E-5;2.15E-6;0;Amateur
14.89089987;0.0024098;97.7399;50.9638;148.1064;212.1618;2.8648E-5;2.16E-6;0;Amateur
14.89090509;0.002418;97.7401;51.8836;145.0712;215.2097;2.6966E-5;2.0E-6;0;Amateur
14.89090941;0.0024235;97.7402;52.5407;142.9044;217.3854;2.7395E-5;2.04E-6;0;Amateur
14.89091099;0.0024259;97.7402;52.8692;141.8343;218.4598;2.6776E-5;1.99E-6;0;Amateur
14.89091555;0.002431;97.7403;53.5262;139.6745;220.6281;2.8341E-5;2.13E-6;0;Amateur
14.89091756;0.0024326;97.7404;53.8547;138.6132;221.6934;2.8482E-5;2.15E-6;0;Amateur
14.89092118;0.002437;97.7404;54.5118;136.4736;223.841;2.9596E-5;2.25E-6;0;Amateur
14.89092297;0.0024383;97.7405;54.8403;135.418;224.9004;2.9969E-5;2.29E-6;0;Amateur
14.8909274;0.0024435;97.7406;55.8259;132.2523;228.0772;3.1617E-5;2.44E-6;0;Amateur
14.89092776;0.0024439;97.7406;55.8916;132.0406;228.2896;3.1846E-5;2.47E-6;0;Amateur
14.89093151;0.0024488;97.7407;56.7458;129.3062;231.0332;3.2702E-5;2.55E-6;0;Amateur
14.89093378;0.0024513;97.7408;57.3372;127.4207;232.9246;3.193E-5;2.47E-6;0;Amateur
14.89093608;0.002453;97.7409;57.7315;126.162;234.1872;3.1879E-5;2.47E-6;0;Amateur
14.89093794;0.0024583;97.741;58.3228;124.2615;236.0935;2.8751E-5;2.17E-6;0;Amateur
14.89093906;0.0024598;97.7411;58.7171;122.9946;237.364;2.5654E-5;1.88E-6;0;Amateur
14.89094479;0.002464;97.7412;59.3086;121.0904;239.2735;2.7645E-5;2.07E-6;0;Amateur
14.89095207;0.0024704;97.7415;60.2943;117.917;242.4553;2.7432E-5;2.05E-6;0;Amateur
14.89095545;0.0024717;97.7415;60.6886;116.6386;243.7367;2.8412E-5;2.14E-6;0;Amateur
14.89095979;0.0024753;97.7417;61.28;114.7294;245.6504;2.9204E-5;2.22E-6;0;Amateur
14.89096071;0.0024751;97.7417;61.3457;114.5202;245.8599;3.0004E-5;2.29E-6;0;Amateur
14.89096344;0.0024758;97.7417;61.6743;113.4739;246.9084;3.0952E-5;2.38E-6;0;Amateur
14.89096852;0.0024788;97.7419;62.2658;111.5717;248.8145;3.3468E-5;2.62E-6;0;Amateur
14.89096887;0.002479;97.7419;62.3315;111.3573;249.0293;3.36E-5;2.63E-6;0;Amateur
14.89097112;0.0024793;97.742;62.66;110.3113;250.0772;3.4226E-5;2.69E-6;0;Amateur
14.8909765;0.0024811;97.7421;63.5801;107.3796;253.0137;3.5425E-5;2.81E-6;0;Amateur
14.89097715;0.0024812;97.7421;63.6458;107.1721;253.2215;3.5861E-5;2.85E-6;0;Amateur
14.89098285;0.0024825;97.7422;64.5659;104.257;256.1407;3.7794E-5;3.03E-6;0;Amateur
14.89098366;0.0024825;97.7422;64.6317;104.0504;256.3475;3.8509E-5;3.1E-6;0;Amateur
14.89099085;0.0024838;97.7423;65.5518;101.1474;259.2538;4.1279E-5;3.36E-6;0;Amateur
14.89099946;0.0024857;97.7424;66.5376;98.0385;262.3654;4.2238E-5;3.45E-6;0;Amateur
14.89100029;0.002486;97.7424;66.6033;97.8339;262.5701;4.2648E-5;3.49E-6;0;Amateur
14.89100974;0.0024886;97.7425;67.5235;94.9219;265.4841;4.3391E-5;3.56E-6;0;Amateur
14.8910187;0.0024909;97.7426;68.5094;91.8006;268.6065;4.1276E-5;3.36E-6;0;Amateur
14.89102668;0.0024925;97.7428;69.4953;88.6619;271.7453;3.8669E-5;3.11E-6;0;Amateur
14.89103461;0.0024924;97.743;70.4812;85.5196;274.8868;3.7685E-5;3.02E-6;0;Amateur
14.8910416;0.0024909;97.7431;71.4672;82.3707;278.0338;3.6902E-5;2.95E-6;0;Amateur
14.89104692;0.0024882;97.7433;72.4532;79.227;281.1746;3.5564E-5;2.82E-6;0;Amateur
14.89105347;0.002485;97.7434;73.4392;76.102;284.2959;3.7029E-5;2.96E-6;0;Amateur
14.89105775;0.0024845;97.7435;74.2937;73.4019;286.9924;3.4862E-5;2.75E-6;0;Amateur
14.89106118;0.0024827;97.7436;74.9512;71.2829;289.108;3.2186E-5;2.5E-6;0;Amateur
14.89106343;0.0024818;97.7437;75.3456;70.0272;290.3615;3.0677E-5;2.36E-6;0;Amateur
14.89106729;0.0024812;97.7438;75.9372;68.1996;292.1858;2.8951E-5;2.19E-6;0;Amateur
14.89106954;0.0024802;97.7438;76.3316;66.9434;293.4395;2.7677E-5;2.07E-6;0;Amateur
14.89107371;0.002479;97.744;76.9232;65.0787;295.3002;2.727E-5;2.03E-6;0;Amateur
14.89107598;0.002478;97.744;77.3176;63.8262;296.55;2.6764E-5;1.98E-6;0;Amateur
14.89108015;0.002477;97.7441;77.9093;61.9426;298.4292;2.7813E-5;2.08E-6;0;Amateur
14.89108341;0.0024753;97.7441;78.3037;60.6758;299.6928;2.9355E-5;2.23E-6;0;Amateur
14.89108728;0.0024731;97.7442;78.8954;58.78;301.5836;3.0925E-5;2.38E-6;0;Amateur
14.89108999;0.0024711;97.7443;79.2898;57.5071;302.853;3.2216E-5;2.5E-6;0;Amateur
14.89109522;0.0024682;97.7444;79.8158;55.818;304.5372;3.6954E-5;2.95E-6;0;Amateur
14.89109748;0.0024641;97.7444;80.4732;53.7071;306.6417;3.647E-5;2.9E-6;0;Amateur
14.89109893;0.0024619;97.7444;80.8019;52.6436;307.7019;3.6667E-5;2.92E-6;0;Amateur
14.89110115;0.002459;97.7444;81.2621;51.1483;309.1923;3.6881E-5;2.94E-6;0;Amateur
14.89110261;0.0024551;97.7445;81.7881;49.475;310.86;3.5243E-5;2.79E-6;0;Amateur
14.89110467;0.0024522;97.7445;82.2483;48.0002;312.3299;3.4234E-5;2.69E-6;0;Amateur
14.89110683;0.0024486;97.7445;82.7743;46.323;314.0011;3.2286E-5;2.51E-6;0;Amateur
14.89110799;0.0024467;97.7445;83.1687;45.0437;315.2759;2.8911E-5;2.19E-6;0;Amateur
14.89111296;0.0024434;97.7446;83.7605;43.1717;317.141;2.9628E-5;2.26E-6;0;Amateur
14.89111526;0.0024415;97.7446;84.155;41.8723;318.4356;2.8262E-5;2.13E-6;0;Amateur
14.89111967;0.0024378;97.7448;84.8125;39.7879;320.5121;2.7139E-5;2.02E-6;0;Amateur
14.8911224;0.002435;97.7449;85.2069;38.5227;321.7722;2.6916E-5;2.0E-6;0;Amateur
14.89112576;0.0024319;97.745;85.7987;36.614;323.6733;2.6374E-5;1.95E-6;0;Amateur
14.89112827;0.0024293;97.7451;86.1932;35.3289;324.9533;2.6398E-5;1.95E-6;0;Amateur
14.89113458;0.0024231;97.7452;87.1137;32.3303;327.9393;2.8618E-5;2.16E-6;0;Amateur
14.89114022;0.0024186;97.7453;87.7055;30.4179;329.8436;3.277E-5;2.55E-6;0;Amateur
14.89114141;0.0024155;97.7454;88.1;29.1052;331.1506;3.1942E-5;2.47E-6;0;Amateur
14.89114141;0.0024155;97.7454;88.1;29.1052;331.1506;3.1942E-5;2.47E-6;0;Amateur
14.89114388;0.002411;97.7455;88.6261;27.3718;332.8764;3.2425E-5;2.52E-6;0;Amateur
14.89114676;0.0024069;97.7456;89.0863;25.8449;334.3965;3.3982E-5;2.67E-6;0;Amateur
14.89114676;0.0024069;97.7456;89.0863;25.8449;334.3965;3.3982E-5;2.67E-6;0;Amateur
14.89114981;0.0024019;97.7457;89.6124;24.0954;336.1381;3.537E-5;2.8E-6;0;Amateur
14.89115157;0.0023984;97.7457;90.0069;22.8056;337.4221;3.4907E-5;2.75E-6;0;Amateur
14.89115371;0.0023958;97.7457;90.2699;21.9645;338.2594;3.6231E-5;2.88E-6;0;Amateur
14.89115584;0.0023896;97.7458;90.9932;19.5718;340.6411;3.1468E-5;2.43E-6;0;Amateur
14.89115717;0.0023883;97.7458;91.2563;18.7102;341.4988;3.0416E-5;2.33E-6;0;Amateur
14.89116262;0.0023826;97.7458;91.9797;16.3325;343.8655;2.9669E-5;2.26E-6;0;Amateur
14.89116438;0.0023801;97.7459;92.2427;15.4833;344.7107;2.9017E-5;2.2E-6;0;Amateur
14.89116912;0.0023722;97.7459;92.966;13.0979;347.085;2.6955E-5;2.0E-6;0;Amateur
14.89117338;0.0023677;97.746;93.5578;11.1524;349.0213;2.6791E-5;1.98E-6;0;Amateur
14.89118199;0.0023586;97.7461;94.6757;7.4461;352.7102;2.9763E-5;2.27E-6;0;Amateur
14.89119034;0.0023459;97.7462;95.9252;3.2785;356.8582;3.1896E-5;2.47E-6;0;Amateur
14.89119416;0.0023407;97.7463;96.517;1.2796;358.8477;3.3438E-5;2.61E-6;0;Amateur
14.89120153;0.0023367;97.7463;96.9116;359.9256;0.1954;4.2367E-5;3.46E-6;0;Amateur
14.89120153;0.0023367;97.7463;96.9116;359.9256;0.1954;4.2367E-5;3.46E-6;0;Amateur
14.89120655;0.0023315;97.7464;97.5035;357.9054;2.2062;4.5617E-5;3.77E-6;0;Amateur
14.89120505;0.0023284;97.7464;97.8323;356.7841;3.3223;3.9071E-5;3.15E-6;0;Amateur
14.89120608;0.002327;97.7464;97.9639;356.3387;3.7656;3.93E-5;3.17E-6;0;Amateur
14.89121279;0.002318;97.7464;98.8845;353.2141;6.8759;3.9459E-5;3.18E-6;0;Amateur
14.8912184;0.0023127;97.7465;99.4107;351.4237;8.6581;4.115E-5;3.34E-6;0;Amateur
14.89122974;0.0023034;97.7466;100.3972;348.0751;11.9918;4.2342E-5;3.46E-6;0;Amateur
14.89123582;0.0022936;97.7468;101.3837;344.7281;15.3242;3.4288E-5;2.69E-6;0;Amateur
14.89123805;0.0022902;97.7468;101.7783;343.3816;16.6648;3.1395E-5;2.42E-6;0;Amateur
14.89124555;0.002286;97.7469;102.3703;341.3654;18.6724;3.519E-5;2.78E-6;0;Amateur
14.89124569;0.0022824;97.747;102.7649;340.0178;20.0143;2.9651E-5;2.25E-6;0;Amateur
14.8912525;0.0022741;97.7471;103.7515;336.6245;23.3936;2.911E-5;2.2E-6;0;Amateur
14.89125797;0.0022665;97.7472;104.7381;333.182;26.8224;2.9054E-5;2.2E-6;0;Amateur
14.89125797;0.0022665;97.7472;104.7381;333.182;26.8224;2.9054E-5;2.2E-6;0;Amateur
14.89126178;0.0022621;97.7473;105.2642;331.3398;28.6574;3.1491E-5;2.43E-6;0;Amateur
14.89126281;0.0022597;97.7473;105.7247;329.7182;30.2728;2.9691E-5;2.26E-6;0;Amateur
14.89126308;0.0022588;97.7473;105.7904;329.4831;30.507;2.9643E-5;2.25E-6;0;Amateur
14.89126605;0.0022512;97.7473;106.7113;326.227;33.7512;2.8021E-5;2.1E-6;0;Amateur
14.89126649;0.002249;97.7474;106.9086;325.5478;34.428;2.7409E-5;2.04E-6;0;Amateur
14.89126732;0.002246;97.7474;107.2375;324.3743;35.5974;2.5664E-5;1.87E-6;0;Amateur
14.89127016;0.0022405;97.7474;107.8952;322.0649;37.8989;2.3979E-5;1.72E-6;0;Amateur
